SWARM A                 
1 39452U 13067B   26188.47713667  .00007671  00000+0  12983-3 0  9992
2 39452  87.3308  48.6985 0003268  95.7847 264.3787 15.51353400709395
SWARM C                 
1 39453U 13067C   26188.47703943  .00007699  00000+0  13031-3 0  9994
2 39453  87.3308  47.2796 0003263  96.0604 264.1029 15.51352695709359
BRITE-CA1 (TORONTO)     
1 40020U 14033L   26187.87747463  .00000913  00000+0  14459-3 0  9995
2 40020  97.9763 316.4452 0077849 213.0292 146.6041 14.72711122645115
OCO 2                   
1 40059U 14035A   26188.48156197  .00000334  00000+0  84091-4 0  9992
2 40059  98.2020 129.4660 0001476  81.9762 278.1604 14.57128145639004
BRITE-PL2 (HEWELIUSZ)   
1 40119U 14049B   26188.25660079  .00001956  00000+0  18560-3 0  9996
2 40119  97.9109 300.4136 0014883  47.9370 312.3113 14.94668605644448
MMS 1                   
1 40482U 15011A   26188.58335647 -.00000660  00000+0  00000+0 0  9993
2 40482  72.4357 348.5541 8305835 167.9209 219.1384  0.28325733  1332
MMS 2                   
1 40483U 15011B   26188.58335647 -.00000660  00000+0  00000+0 0  9994
2 40483  72.4396 348.5531 8308651 167.9239 219.1271  0.28325686  1339
MMS 3                   
1 40484U 15011C   26188.58335647 -.00000659  00000+0  00000+0 0  9993
2 40484  72.4394 348.5649 8307019 167.9315 219.1012  0.28325665  1307
MMS 4                   
1 40485U 15011D   26188.58335647 -.00000659  00000+0  00000+0 0  9994
2 40485  72.4352 348.5483 8306954 167.9413 219.0954  0.28325712  1367
ASTROSAT                
1 40930U 15052A   26187.06238198  .00001814  00000+0  13877-3 0  9992
2 40930   5.9982  19.4758 0008506 302.4435  57.4871 14.82542388582636
DAMPE                   
1 41173U 15078A   26188.49750380  .00001233  00000+0  43922-4 0  9990
2 41173  97.4563 194.0650 0012469  12.5764 347.5786 15.30840847587655
PISAT                   
1 41784U 16059B   26188.44224602  .00000817  00000+0  14640-3 0  9997
2 41784  97.8185 188.0251 0030018 138.5610 221.7881 14.69020153522712
HXMT (HUIYAN)           
1 42758U 17034A   26188.52474089  .00003056  00000+0  15443-3 0  9998
2 42758  43.0143  69.7830 0032765 274.0402  85.6701 15.18640854500754
FLYING LAPTOP           
1 42831U 17042G   26188.51522817  .00001555  00000+0  12496-3 0  9998
2 42831  97.4784 343.2786 0019894  56.9148 303.3984 15.01277987489509
ZHANGHENG 1-01 (CSES-1) 
1 43194U 18015C   26188.53408571  .00005220  00000+0  23710-3 0  9998
2 43194  97.6891 354.6012 0018132 192.0842 167.9961 15.21092047467732
SALSAT                  
1 46495U 20068K   26187.96288697  .00005977  00000+0  20799-3 0  9990
2 46495  97.8858 192.2352 0008388 224.1445 135.9125 15.30092809318384
IXPE                    
1 49954U 21121A   26188.50003471  .00009195  00000+0  48775-3 0  9990
2 49954   0.2295 163.6257 0006648  25.7718 161.5305 15.10445124  5772
