OBJECT_NAME,OBJECT_ID,EPOCH,MEAN_MOTION,ECCENTRICITY,INCLINATION,RA_OF_ASC_NODE,ARG_OF_PERICENTER,MEAN_ANOMALY,EPHEMERIS_TYPE,CLASSIFICATION_TYPE,NORAD_CAT_ID,ELEMENT_SET_NO,REV_AT_EPOCH,BSTAR,MEAN_MOTION_DOT,MEAN_MOTION_DDOT
SWARM A,2013-067B,2026-07-07T11:27:04.608288,15.51353400,.0003268,87.3308,48.6985,95.7847,264.3787,0,U,39452,999,70939,.12983E-3,.7671E-4,0
SWARM C,2013-067C,2026-07-07T11:26:56.206752,15.51352695,.0003263,87.3308,47.2796,96.0604,264.1029,0,U,39453,999,70935,.13031E-3,.7699E-4,0
BRITE-CA1 (TORONTO),2014-033L,2026-07-06T21:03:33.808032,14.72711122,.0077849,97.9763,316.4452,213.0292,146.6041,0,U,40020,999,64511,.14459E-3,.913E-5,0
OCO 2,2014-035A,2026-07-07T11:33:26.954208,14.57128145,.0001476,98.2020,129.4660,81.9762,278.1604,0,U,40059,999,63900,.84091E-4,.334E-5,0
BRITE-PL2 (HEWELIUSZ),2014-049B,2026-07-07T06:09:30.308256,14.94668605,.0014883,97.9109,300.4136,47.9370,312.3113,0,U,40119,999,64444,.1856E-3,.1956E-4,0
MMS 1,2015-011A,2026-07-07T14:00:01.999008,0.28325733,.8305835,72.4357,348.5541,167.9209,219.1384,0,U,40482,999,133,0,-.66E-5,0
MMS 2,2015-011B,2026-07-07T14:00:01.999008,0.28325686,.8308651,72.4396,348.5531,167.9239,219.1271,0,U,40483,999,133,0,-.66E-5,0
MMS 3,2015-011C,2026-07-07T14:00:01.999008,0.28325665,.8307019,72.4394,348.5649,167.9315,219.1012,0,U,40484,999,130,0,-.659E-5,0
MMS 4,2015-011D,2026-07-07T14:00:01.999008,0.28325712,.8306954,72.4352,348.5483,167.9413,219.0954,0,U,40485,999,136,0,-.659E-5,0
ASTROSAT,2015-052A,2026-07-06T01:29:49.803072,14.82542388,.0008506,5.9982,19.4758,302.4435,57.4871,0,U,40930,999,58263,.13877E-3,.1814E-4,0
DAMPE,2015-078A,2026-07-07T11:56:24.328320,15.30840847,.0012469,97.4563,194.0650,12.5764,347.5786,0,U,41173,999,58765,.43922E-4,.1233E-4,0
PISAT,2016-059B,2026-07-07T10:36:50.056128,14.69020153,.0030018,97.8185,188.0251,138.5610,221.7881,0,U,41784,999,52271,.1464E-3,.817E-5,0
HXMT (HUIYAN),2017-034A,2026-07-07T12:35:37.612896,15.18640854,.0032765,43.0143,69.7830,274.0402,85.6701,0,U,42758,999,50075,.15443E-3,.3056E-4,0
FLYING LAPTOP,2017-042G,2026-07-07T12:21:55.713888,15.01277987,.0019894,97.4784,343.2786,56.9148,303.3984,0,U,42831,999,48950,.12496E-3,.1555E-4,0
ZHANGHENG 1-01 (CSES-1),2018-015C,2026-07-07T12:49:05.005344,15.21092047,.0018132,97.6891,354.6012,192.0842,167.9961,0,U,43194,999,46773,.2371E-3,.522E-4,0
SALSAT,2020-068K,2026-07-06T23:06:33.434208,15.30092809,.0008388,97.8858,192.2352,224.1445,135.9125,0,U,46495,999,31838,.20799E-3,.5977E-4,0
IXPE,2021-121A,2026-07-07T12:00:02.998944,15.10445124,.0006648,0.2295,163.6257,25.7718,161.5305,0,U,49954,999,577,.48775E-3,.9195E-4,0
